RADUGA 1 [-]            
1 08513U 75123A   22354.91160419  .00000016  00000+0  00000+0 0  9997
2 08513   6.0818 286.0009 0006887 223.7665 334.9294  1.00288718182030
RADUGA 2 [-]            
1 09416U 76092A   22355.74445779 -.00000152  00000+0  00000+0 0  9995
2 09416   6.7441 288.0029 0027654   1.7557 153.1687  1.00286239116563
RADUGA 3 [-]            
1 10159U 77071A   22355.91199993 -.00000030  00000+0  00000+0 0  9997
2 10159   7.3611 290.6429 0008857 244.7307 317.5162  1.00186993164286
RADUGA 4 [-]            
1 10987U 78073A   22355.47779319  .00000104  00000+0  00000+0 0  9997
2 10987   7.9923 294.2202 0008785   0.1259  22.3978  1.00336207106834
RADUGA 5 [-]            
1 11343U 79035A   22355.41085043 -.00000091  00000+0  00000+0 0  9997
2 11343   8.4543 297.0267 0006040 176.5524 203.0658  1.00248630116580
RADUGA 6 [-]            
1 11708U 80016A   22355.34129272 -.00000211  00000+0  00000+0 0  9992
2 11708   8.8195 300.1494 0002515 212.4405 149.7310  1.00335993109392
RADUGA 7 [-]            
1 12003U 80081A   22355.67711150 -.00000164  00000+0  00000+0 0  9998
2 12003   9.0058 302.1239 0009926 270.5257  96.1345  1.00267866110651
RADUGA 8 [-]            
1 12351U 81027A   22355.20845316 -.00000222  00000+0  00000+0 0  9991
2 12351   9.3390 302.7036 0081801 233.3095 131.2127  1.00355612109765
RADUGA 9 [-]            
1 12618U 81069A   22356.34486888 -.00000188  00000+0  00000+0 0  9995
2 12618   9.5626 305.7107 0003109 155.9859 199.4367  1.00352602115573
RADUGA 10 [-]           
1 12897U 81102A   22355.41207074 -.00000160  00000+0  00000+0 0  9997
2 12897   9.6516 306.7155 0005264 187.0930 189.5979  1.00265564104572
RADUGA 11 [-]           
1 13669U 82113A   22355.34521515 -.00000072  00000+0  00000+0 0  9991
2 13669  11.7291 320.6109 0038483 258.0418 104.4802  0.97708392109096
RADUGA 12 [-]           
1 13974U 83028A   22355.40989162 -.00000064  00000+0  00000+0 0  9990
2 13974  10.8208 316.5824 0001480  99.9890 254.5517  1.00295162156604
RADUGA 13 [-]           
1 14307U 83088A   22356.05257593 -.00000056  00000+0  00000+0 0  9996
2 14307  11.9826 322.1402 0015206  42.1791 141.5537  0.98173716106438
RADUGA 14 [-]           
1 14725U 84016A   22355.42618925 -.00000140  00000+0  00000+0 0  9996
2 14725  11.0391 320.3926 0004273 143.5751 221.7341  1.00251005105339
RADUGA 15 [-]           
1 15057U 84063A   22356.28149990 -.00000329  00000+0  00000+0 0  9992
2 15057  11.1624 321.3711 0005081 163.7500 195.3169  1.00253812128321
RADUGA 16 [-]           
1 15946U 85070A   22355.53686186  .00000133  00000+0  00000+0 0  9990
2 15946  11.6443 326.0747 0001802 177.2769 343.4779  1.00333044109459
RADUGA 17 [-]           
1 16250U 85107A   22356.45207814  .00000074  00000+0  00000+0 0  9993
2 16250  11.7701 327.4756 0013220 189.3339 326.9007  1.00134966139056
RADUGA 18 [-]           
1 16497U 86007A   22356.31880653 -.00000198  00000+0  00000+0 0  9997
2 16497  12.5866 330.2026 0074724 168.8986  21.9824  0.98813778133333
RADUGA 19 [-]           
1 17046U 86082A   22355.74033767 -.00000159  00000+0  00000+0 0  9990
2 17046  13.0321 334.1640 0012827 154.2223 353.3706  0.98460949130415
RADUGA 20 [-]           
1 17611U 87028A   22355.71415663 -.00000147  00000+0  00000+0 0  9992
2 17611  15.0580 337.6662 0030344 142.4114  27.7590  0.95962226126078
RADUGA 21 [-]           
1 18631U 87100A   22355.58273990  .00000088  00000+0  00000+0 0  9999
2 18631  13.1275 334.9519 0003281 138.0663  48.2589  1.00337636128304
RADUGA 22 [-]           
1 19596U 88095A   22355.91670684 -.00000267  00000+0  00000+0 0  9992
2 19596  13.1277 339.2903 0007300 145.1331  33.2021  1.00169767108939
RADUGA 23 [-]           
1 19928U 89030A   22355.48136696 -.00000087  00000+0  00000+0 0  9993
2 19928  13.2860 341.1165 0021403 168.3143 186.2441  1.00365230122076
RADUGA-1 1 [-]          
1 20083U 89048A   22355.34817876 -.00000186  00000+0  00000+0 0  9997
2 20083  14.0519 344.2009 0022294 119.2122 235.8952  0.98709376118692
RADUGA 24 [-]           
1 20367U 89098A   22356.06924477  .00000120  00000+0  00000+0 0  9990
2 20367  13.8707 343.3513 0001907 151.5973  26.5022  1.00251749120263
RADUGA 25 [-]           
1 20499U 90016A   22356.03015594 -.00000079  00000+0  00000+0 0  9990
2 20499  13.6424 344.0268 0004905 150.6631 221.1617  1.00164632120188
RADUGA 26 [-]           
1 21016U 90112A   22355.48372042 -.00000192  00000+0  00000+0 0  9991
2 21016  13.9733 347.2833 0006993  97.3560 263.8775  1.00317495117495
RADUGA-1 2 [-]          
1 21038U 90116A   22355.04783157  .00000057  00000+0  00000+0 0  9993
2 21038  14.0129 347.3569 0008365 106.9783  68.9329  1.00312399 34569
RADUGA 27 [-]           
1 21132U 91014A   22355.11440102  .00000139  00000+0  00000+0 0  9995
2 21132  14.5204 346.8578 0003063 103.8203  70.9790  1.00330120116535
RADUGA 28 [-]           
1 21821U 91087A   22355.04948772  .00000012  00000+0  00000+0 0  9998
2 21821  14.3045 350.6274 0007057 131.6397  50.1702  1.00185025113540
RADUGA 29 [-]           
1 22557U 93013A   22356.05529920 -.00000104  00000+0  00000+0 0  9991
2 22557  14.5324 354.7918 0007147 118.8994  69.8144  1.00385022108921
RADUGA 30 [-]           
1 22836U 93062A   22355.05053370 -.00000052  00000+0  00000+0 0  9997
2 22836  14.5830 356.7808 0001287 343.3081 198.1627  1.00263851 33221
RADUGA-1 3 [-]          
1 22981U 94008A   22356.05660667 -.00000131  00000+0  00000+0 0  9991
2 22981  14.6659 357.9198 0003266 113.7783  78.9814  1.00215438105742
RADUGA 31 [-]           
1 23010U 94012A   22355.48372042 -.00000198  00000+0  00000+0 0  9996
2 23010  14.6363 357.9218 0005286 100.4621 250.0432  1.00336772105574
RADUGA 32 [-]           
1 23448U 94087A   22355.05079520 -.00000063  00000+0  00000+0 0  9992
2 23448  14.6330   0.6464 0005259 206.1735 332.6566  1.00264161120101
RADUGA-1 4 [-]          
1 25642U 99010A   22356.12434142  .00000019  00000+0  00000+0 0  9995
2 25642  15.2622  12.1677 0002696 248.3087 294.5988  1.00348105 87202
RADUGA-1 5 [-]          
1 26477U 00049A   22355.95926916  .00000054  00000+0  00000+0 0  9990
2 26477  13.2357  17.1708 0004681  66.6031  48.2870  1.00325776 81722
RADUGA-1 6 [-]          
1 26936U 01045A   22355.72278598 -.00000108  00000+0  00000+0 0  9999
2 26936  13.4353  23.5291 0016326 169.4668   1.4477  0.97744930 76129
RADUGA-1 7 [-]          
1 28194U 04010A   22355.05678490 -.00000300  00000+0  00000+0 0  9997
2 28194  12.1838  30.3301 0002276 188.5590 353.0146  1.00182923 68644
RADUGA-1M 1 [-]         
1 32373U 07058A   22356.10455494 -.00000249  00000+0  00000+0 0  9992
2 32373   7.3114  62.7366 0001165 329.7539  56.2356  0.99399057 55667
RADUGA-1 8 [-]          
1 34264U 09010A   22355.49932295 -.00000169  00000+0  00000+0 0  9994
2 34264   9.5935  52.6712 0013488   3.8057  16.0682  0.99832909 50469
RADUGA-1M 2 [+]         
1 36358U 10002A   22355.74455019 -.00000160  00000+0  00000+0 0  9996
2 36358   0.3195  98.9557 0002077 236.7054 107.6719  1.00271480 47242
RADUGA-1M 3 [+]         
1 39375U 13062A   22356.19119696  .00000175  00000+0  00000+0 0  9990
2 39375   2.7090  87.6552 0001808 121.8604 345.0360  1.00272652 33360
